start=new Date('2021-12-26T00:00:00.000Z').valueOf();
sats=[{"RCS_SIZE":"LARGE","INCLINATION":"53.0540","OBJECT_ID":"2020-070BE","BSTAR":"0.00011490000000","GP_ID":"192456895","PERIAPSIS":"545.393","FILE":"3250974","EPOCH":"2021-12-25T20:54:59.869728","DECAY_DATE":null,"SEMIMAJOR_AXIS":"6925.344","RA_OF_ASC_NODE":"206.6749","MEAN_MOTION":"15.06401387","ARG_OF_PERICENTER":"80.0409","ECCENTRICITY":"0.00026220","REV_AT_EPOCH":"6845","TLE_LINE1":"1 46584U 20070BE  21359.87152627  .00001430  00000-0  11490-3 0  9990","PERIOD":"95.592","MEAN_MOTION_DDOT":"0.0000000000000","SITE":"AFETR","TLE_LINE2":"2 46584  53.0540 206.6749 0002622  80.0409 280.0876 15.06401387 68452","OBJECT_TYPE":"PAYLOAD","COUNTRY_CODE":"US","OBJECT_NAME":"STARLINK-1732","MEAN_MOTION_DOT":"0.00001430","NORAD_CAT_ID":"46584","CENTER_NAME":"EARTH","MEAN_ANOMALY":"280.0876","CLASSIFICATION_TYPE":"U","TIME_SYSTEM":"UTC","LAUNCH_DATE":"2020-10-06","REF_FRAME":"TEME","MEAN_ELEMENT_THEORY":"SGP4","ELEMENT_SET_NO":"999","EPHEMERIS_TYPE":"0","APOAPSIS":"549.025"},{"GP_ID":"192456646","PERIAPSIS":"545.530","DECAY_DATE":null,"EPOCH":"2021-12-25T21:21:32.997600","FILE":"3250974","INCLINATION":"53.0535","RCS_SIZE":"LARGE","OBJECT_ID":"2020-070BF","BSTAR":"0.00015750000000","REV_AT_EPOCH":"6845","TLE_LINE1":"1 46585U 20070BF  21359.88996525  .00002065  00000-0  15750-3 0  9993","RA_OF_ASC_NODE":"206.6089","SEMIMAJOR_AXIS":"6925.348","MEAN_MOTION":"15.06400311","ARG_OF_PERICENTER":"78.8055","ECCENTRICITY":"0.00024300","OBJECT_TYPE":"PAYLOAD","TLE_LINE2":"2 46585  53.0535 206.6089 0002430  78.8055 281.3207 15.06400311 68451","COUNTRY_CODE":"US","OBJECT_NAME":"STARLINK-1736","MEAN_MOTION_DOT":"0.00002065","CLASSIFICATION_TYPE":"U","NORAD_CAT_ID":"46585","MEAN_ANOMALY":"281.3207","CENTER_NAME":"EARTH","MEAN_MOTION_DDOT":"0.0000000000000","PERIOD":"95.592","SITE":"AFETR","REF_FRAME":"TEME","MEAN_ELEMENT_THEORY":"SGP4","ELEMENT_SET_NO":"999","EPHEMERIS_TYPE":"0","APOAPSIS":"548.895","TIME_SYSTEM":"UTC","LAUNCH_DATE":"2020-10-06"},{"COUNTRY_CODE":"US","OBJECT_NAME":"STARLINK-1737","TLE_LINE2":"2 46586  53.0539 206.9558 0002187  79.2313 280.8922 15.06392058 68446","OBJECT_TYPE":"PAYLOAD","NORAD_CAT_ID":"46586","MEAN_ANOMALY":"280.8922","CENTER_NAME":"EARTH","CLASSIFICATION_TYPE":"U","MEAN_MOTION_DOT":"0.00000089","SITE":"AFETR","PERIOD":"95.593","MEAN_MOTION_DDOT":"0.0000000000000","MEAN_ELEMENT_THEORY":"SGP4","REF_FRAME":"TEME","APOAPSIS":"548.752","EPHEMERIS_TYPE":"0","ELEMENT_SET_NO":"999","LAUNCH_DATE":"2020-10-06","TIME_SYSTEM":"UTC","PERIAPSIS":"545.723","GP_ID":"192457897","FILE":"3250974","DECAY_DATE":null,"EPOCH":"2021-12-25T19:30:04.498848","RCS_SIZE":"LARGE","INCLINATION":"53.0539","BSTAR":"0.00002488600000","OBJECT_ID":"2020-070BG","TLE_LINE1":"1 46586U 20070BG  21359.81255207  .00000089  00000-0  24886-4 0  9997","REV_AT_EPOCH":"6844","SEMIMAJOR_AXIS":"6925.373","MEAN_MOTION":"15.06392058","RA_OF_ASC_NODE":"206.9558","ECCENTRICITY":"0.00021870","ARG_OF_PERICENTER":"79.2313"},{"APOAPSIS":"548.784","EPHEMERIS_TYPE":"0","ELEMENT_SET_NO":"999","MEAN_ELEMENT_THEORY":"SGP4","REF_FRAME":"TEME","LAUNCH_DATE":"2020-10-06","TIME_SYSTEM":"UTC","CLASSIFICATION_TYPE":"U","NORAD_CAT_ID":"46588","CENTER_NAME":"EARTH","MEAN_ANOMALY":"282.5588","MEAN_MOTION_DOT":"0.00000016","COUNTRY_CODE":"US","OBJECT_NAME":"STARLINK-1746","OBJECT_TYPE":"PAYLOAD","TLE_LINE2":"2 46588  53.0551 206.7241 0002260  77.5653 282.5588 15.06398273 68452","SITE":"AFETR","MEAN_MOTION_DDOT":"0.0000000000000","PERIOD":"95.592","TLE_LINE1":"1 46588U 20070BJ  21359.86047077  .00000016  00000-0  19969-4 0  9994","REV_AT_EPOCH":"6845","ECCENTRICITY":"0.00022600","ARG_OF_PERICENTER":"77.5653","MEAN_MOTION":"15.06398273","SEMIMAJOR_AXIS":"6925.354","RA_OF_ASC_NODE":"206.7241","EPOCH":"2021-12-25T20:39:04.674528","DECAY_DATE":null,"FILE":"3250974","PERIAPSIS":"545.654","GP_ID":"192457646","BSTAR":"0.00001996900000","OBJECT_ID":"2020-070BJ","INCLINATION":"53.0551","RCS_SIZE":"LARGE"},{"APOAPSIS":"548.713","EPHEMERIS_TYPE":"0","ELEMENT_SET_NO":"999","MEAN_ELEMENT_THEORY":"SGP4","REF_FRAME":"TEME","LAUNCH_DATE":"2020-10-06","TIME_SYSTEM":"UTC","NORAD_CAT_ID":"46589","CENTER_NAME":"EARTH","MEAN_ANOMALY":"289.8156","CLASSIFICATION_TYPE":"U","MEAN_MOTION_DOT":"0.00003370","COUNTRY_CODE":"US","OBJECT_NAME":"STARLINK-1749","TLE_LINE2":"2 46589  53.0532 206.7663 0002194  70.3070 289.8156 15.06406595 68447","OBJECT_TYPE":"PAYLOAD","SITE":"AFETR","PERIOD":"95.592","MEAN_MOTION_DDOT":"0.0000000000000","TLE_LINE1":"1 46589U 20070BK  21359.85310738  .00003370  00000-0  24500-3 0  9993","REV_AT_EPOCH":"6844","ECCENTRICITY":"0.00021940","ARG_OF_PERICENTER":"70.3070","RA_OF_ASC_NODE":"206.7663","SEMIMAJOR_AXIS":"6925.328","MEAN_MOTION":"15.06406595","FILE":"3250974","EPOCH":"2021-12-25T20:28:28.477632","DECAY_DATE":null,"PERIAPSIS":"545.674","GP_ID":"192456396","BSTAR":"0.00024500000000","OBJECT_ID":"2020-070BK","RCS_SIZE":"LARGE","INCLINATION":"53.0532"},{"PERIAPSIS":"433.815","GP_ID":"192457146","EPOCH":"2021-12-25T17:08:08.639232","DECAY_DATE":null,"FILE":"3250974","INCLINATION":"53.0562","RCS_SIZE":"LARGE","BSTAR":"0.00140040000000","OBJECT_ID":"2020-070BL","TLE_LINE1":"1 46590U 20070BL  21359.71398888  .00064506  00000-0  14004-2 0  9997","REV_AT_EPOCH":"6970","MEAN_MOTION":"15.43791373","SEMIMAJOR_AXIS":"6813.069","RA_OF_ASC_NODE":"116.4236","ECCENTRICITY":"0.00016420","ARG_OF_PERICENTER":"59.9016","OBJECT_NAME":"STARLINK-1754","COUNTRY_CODE":"US","OBJECT_TYPE":"PAYLOAD","TLE_LINE2":"2 46590  53.0562 116.4236 0001642  59.9016 300.2152 15.43791373 69701","CLASSIFICATION_TYPE":"U","NORAD_CAT_ID":"46590","CENTER_NAME":"EARTH","MEAN_ANOMALY":"300.2152","MEAN_MOTION_DOT":"0.00064506","SITE":"AFETR","MEAN_MOTION_DDOT":"0.0000000000000","PERIOD":"93.277","MEAN_ELEMENT_THEORY":"SGP4","REF_FRAME":"TEME","APOAPSIS":"436.052","EPHEMERIS_TYPE":"0","ELEMENT_SET_NO":"999","LAUNCH_DATE":"2020-10-06","TIME_SYSTEM":"UTC"},{"SITE":"AFETR","PERIOD":"95.592","MEAN_MOTION_DDOT":"0.0000000000000","COUNTRY_CODE":"US","OBJECT_NAME":"STARLINK-1755","TLE_LINE2":"2 46591  53.0520 206.8272 0002478  78.8830 281.2437 15.06399058 67505","OBJECT_TYPE":"PAYLOAD","NORAD_CAT_ID":"46591","MEAN_ANOMALY":"281.2437","CENTER_NAME":"EARTH","CLASSIFICATION_TYPE":"U","MEAN_MOTION_DOT":"0.00000608","LAUNCH_DATE":"2020-10-06","TIME_SYSTEM":"UTC","MEAN_ELEMENT_THEORY":"SGP4","REF_FRAME":"TEME","APOAPSIS":"548.933","EPHEMERIS_TYPE":"0","ELEMENT_SET_NO":"999","RCS_SIZE":"LARGE","INCLINATION":"53.0520","BSTAR":"0.00005977300000","OBJECT_ID":"2020-070BM","PERIAPSIS":"545.500","GP_ID":"192457398","FILE":"3250974","DECAY_DATE":null,"EPOCH":"2021-12-25T20:12:32.197248","RA_OF_ASC_NODE":"206.8272","SEMIMAJOR_AXIS":"6925.351","MEAN_MOTION":"15.06399058","ECCENTRICITY":"0.00024780","ARG_OF_PERICENTER":"78.8830","TLE_LINE1":"1 46591U 20070BM  21359.84203932  .00000608  00000-0  59773-4 0  9994","REV_AT_EPOCH":"6750"},{"OBJECT_ID":"2020-073B","BSTAR":"0.00006444500000","INCLINATION":"53.0549","RCS_SIZE":"LARGE","EPOCH":"2021-12-25T02:49:32.515680","DECAY_DATE":null,"FILE":"3250775","GP_ID":"192428942","PERIAPSIS":"545.984","ARG_OF_PERICENTER":"62.6446","ECCENTRICITY":"0.00018270","RA_OF_ASC_NODE":"300.0715","SEMIMAJOR_AXIS":"6925.384","MEAN_MOTION":"15.06388436","REV_AT_EPOCH":"6561","TLE_LINE1":"1 46671U 20073B   21359.11773745  .00000678  00000-0  64445-4 0  9999","MEAN_MOTION_DDOT":"0.0000000000000","PERIOD":"95.593","SITE":"AFETR","MEAN_MOTION_DOT":"0.00000678","CLASSIFICATION_TYPE":"U","MEAN_ANOMALY":"297.4728","NORAD_CAT_ID":"46671","CENTER_NAME":"EARTH","OBJECT_TYPE":"PAYLOAD","TLE_LINE2":"2 46671  53.0549 300.0715 0001827  62.6446 297.4728 15.06388436 65615","COUNTRY_CODE":"US","OBJECT_NAME":"STARLINK-1715","TIME_SYSTEM":"UTC","LAUNCH_DATE":"2020-10-18","ELEMENT_SET_NO":"999","EPHEMERIS_TYPE":"0","APOAPSIS":"548.514","REF_FRAME":"TEME","MEAN_ELEMENT_THEORY":"SGP4"},{"MEAN_MOTION_DDOT":"0.0000000000000","PERIOD":"95.593","SITE":"AFETR","OBJECT_TYPE":"PAYLOAD","TLE_LINE2":"2 46672  53.0547 291.6071 0001611  56.7273 303.3870 15.06390752 65807","COUNTRY_CODE":"US","OBJECT_NAME":"STARLINK-1716","MEAN_MOTION_DOT":"-0.00000541","CLASSIFICATION_TYPE":"U","NORAD_CAT_ID":"46672","MEAN_ANOMALY":"303.3870","CENTER_NAME":"EARTH","TIME_SYSTEM":"UTC","LAUNCH_DATE":"2020-10-18","REF_FRAME":"TEME","MEAN_ELEMENT_THEORY":"SGP4","ELEMENT_SET_NO":"999","EPHEMERIS_TYPE":"0","APOAPSIS":"548.358","INCLINATION":"53.0547","RCS_SIZE":"LARGE","OBJECT_ID":"2020-073C","BSTAR":"-0.00001744800000","GP_ID":"192457406","PERIAPSIS":"546.126","EPOCH":"2021-12-25T21:18:13.753152","DECAY_DATE":null,"FILE":"3250974","SEMIMAJOR_AXIS":"6925.377","MEAN_MOTION":"15.06390752","RA_OF_ASC_NODE":"291.6071","ARG_OF_PERICENTER":"56.7273","ECCENTRICITY":"0.00016110","REV_AT_EPOCH":"6580","TLE_LINE1":"1 46672U 20073C   21359.88765918 -.00000541  00000-0 -17448-4 0  9999"},{"REV_AT_EPOCH":"6558","TLE_LINE1":"1 46673U 20073D   21359.85768806 -.00001793  00000-0 -10154-3 0  9992","ARG_OF_PERICENTER":"55.0492","ECCENTRICITY":"0.00017750","SEMIMAJOR_AXIS":"6925.380","RA_OF_ASC_NODE":"306.7551","MEAN_MOTION":"15.06389885","EPOCH":"2021-12-25T20:35:04.248384","DECAY_DATE":null,"FILE":"3250974","GP_ID":"192458154","PERIAPSIS":"546.015","OBJECT_ID":"2020-073D","BSTAR":"-0.00010154000000","INCLINATION":"53.0546","RCS_SIZE":"LARGE","ELEMENT_SET_NO":"999","EPHEMERIS_TYPE":"0","APOAPSIS":"548.474","REF_FRAME":"TEME","MEAN_ELEMENT_THEORY":"SGP4","TIME_SYSTEM":"UTC","LAUNCH_DATE":"2020-10-18","MEAN_MOTION_DOT":"-0.00001793","CLASSIFICATION_TYPE":"U","CENTER_NAME":"EARTH","NORAD_CAT_ID":"46673","MEAN_ANOMALY":"305.0664","OBJECT_TYPE":"PAYLOAD","TLE_LINE2":"2 46673  53.0546 306.7551 0001775  55.0492 305.0664 15.06389885 65584","COUNTRY_CODE":"US","OBJECT_NAME":"STARLINK-1717","MEAN_MOTION_DDOT":"0.0000000000000","PERIOD":"95.593","SITE":"AFETR"}];
